{
  "type": "FeatureCollection",
  "features": [
    {
      "type": "Feature",
      "properties": {
        "norad_id": 31224,
        "name": "FENGYUN 1C DEB",
        "group": "fengyun-1c-debris",
        "lat": 68.19777745005707,
        "lon": -30.428458630045668,
        "alt_km": 721.5794829770039,
        "timestamp": "2025-12-25T19:00:39.632110+00:00",
        "meta_object_name": "FENGYUN 1C DEB",
        "meta_object_id": "1999-025BLE",
        "meta_epoch": "2025-12-21T18:01:36.152832",
        "meta_mean_motion": 14.28909208,
        "meta_eccentricity": 0.01584909,
        "meta_inclination": 98.3705,
        "meta_ra_of_asc_node": 347.2876,
        "meta_arg_of_pericenter": 136.314,
        "meta_mean_anomaly": 39.6223,
        "meta_ephemeris_type": 0,
        "meta_classification_type": "U",
        "meta_norad_cat_id": 31224,
        "meta_element_set_no": 999,
        "meta_rev_at_epoch": 69379,
        "meta_bstar": 0.00021705692,
        "meta_mean_motion_dot": 5.84e-06,
        "meta_mean_motion_ddot": 0,
        "tle_line1": "1 31224U 99025BLE 25355.75111288  .00000584  00000+0  21706-3 0  9995",
        "tle_line2": "2 31224  98.3705 347.2876 0158490 136.3140  39.6223 14.28909208693790"
      },
      "geometry": {
        "type": "Point",
        "coordinates": [
          -30.428458630045668,
          68.19777745005707
        ]
      }
    },
    {
      "type": "Feature",
      "properties": {
        "norad_id": 31225,
        "name": "FENGYUN 1C DEB",
        "group": "fengyun-1c-debris",
        "lat": -19.349558720080044,
        "lon": 76.36435735426589,
        "alt_km": 780.5899344977879,
        "timestamp": "2025-12-25T19:00:39.632124+00:00",
        "meta_object_name": "FENGYUN 1C DEB",
        "meta_object_id": "1999-025BLF",
        "meta_epoch": "2025-12-24T16:43:58.755648",
        "meta_mean_motion": 14.17917431,
        "meta_eccentricity": 0.00881833,
        "meta_inclination": 98.9886,
        "meta_ra_of_asc_node": 72.07,
        "meta_arg_of_pericenter": 316.7616,
        "meta_mean_anomaly": 197.3953,
        "meta_ephemeris_type": 0,
        "meta_classification_type": "U",
        "meta_norad_cat_id": 31225,
        "meta_element_set_no": 999,
        "meta_rev_at_epoch": 95991,
        "meta_bstar": 0.0012563053,
        "meta_mean_motion_dot": 2.623e-05,
        "meta_mean_motion_ddot": 0,
        "tle_line1": "1 31225U 99025BLF 25358.69720782  .00002623  00000+0  12563-2 0  9993",
        "tle_line2": "2 31225  98.9886  72.0700 0088183 316.7616 197.3953 14.17917431959915"
      },
      "geometry": {
        "type": "Point",
        "coordinates": [
          76.36435735426589,
          -19.349558720080044
        ]
      }
    },
    {
      "type": "Feature",
      "properties": {
        "norad_id": 31226,
        "name": "FENGYUN 1C DEB",
        "group": "fengyun-1c-debris",
        "lat": -16.352267210443266,
        "lon": 176.54489121451127,
        "alt_km": 736.0467432949972,
        "timestamp": "2025-12-25T19:00:39.632136+00:00",
        "meta_object_name": "FENGYUN 1C DEB",
        "meta_object_id": "1999-025BLG",
        "meta_epoch": "2025-12-17T06:26:05.828928",
        "meta_mean_motion": 14.2670123,
        "meta_eccentricity": 0.01270359,
        "meta_inclination": 98.3503,
        "meta_ra_of_asc_node": 350.8791,
        "meta_arg_of_pericenter": 182.6246,
        "meta_mean_anomaly": 177.4284,
        "meta_ephemeris_type": 0,
        "meta_classification_type": "U",
        "meta_norad_cat_id": 31226,
        "meta_element_set_no": 999,
        "meta_rev_at_epoch": 62118,
        "meta_bstar": 0.0003027873,
        "meta_mean_motion_dot": 7.56e-06,
        "meta_mean_motion_ddot": 0,
        "tle_line1": "1 31226U 99025BLG 25351.26812302  .00000756  00000+0  30279-3 0  9990",
        "tle_line2": "2 31226  98.3503 350.8791 0127035 182.6246 177.4284 14.26701230621181"
      },
      "geometry": {
        "type": "Point",
        "coordinates": [
          176.54489121451127,
          -16.352267210443266
        ]
      }
    },
    {
      "type": "Feature",
      "properties": {
        "norad_id": 31228,
        "name": "FENGYUN 1C DEB",
        "group": "fengyun-1c-debris",
        "lat": -51.27809280399402,
        "lon": -76.76310488150034,
        "alt_km": 784.913527272256,
        "timestamp": "2025-12-25T19:00:39.632148+00:00",
        "meta_object_name": "FENGYUN 1C DEB",
        "meta_object_id": "1999-025BLJ",
        "meta_epoch": "2025-12-25T06:29:07.160064",
        "meta_mean_motion": 14.36958879,
        "meta_eccentricity": 0.00793185,
        "meta_inclination": 98.8699,
        "meta_ra_of_asc_node": 271.4682,
        "meta_arg_of_pericenter": 49.5125,
        "meta_mean_anomaly": 81.0117,
        "meta_ephemeris_type": 0,
        "meta_classification_type": "U",
        "meta_norad_cat_id": 31228,
        "meta_element_set_no": 999,
        "meta_rev_at_epoch": 97749,
        "meta_bstar": 0.00056438961,
        "meta_mean_motion_dot": 1.686e-05,
        "meta_mean_motion_ddot": 0,
        "tle_line1": "1 31228U 99025BLJ 25359.27022176  .00001686  00000+0  56439-3 0  9992",
        "tle_line2": "2 31228  98.8699 271.4682 0079318  49.5125  81.0117 14.36958879977495"
      },
      "geometry": {
        "type": "Point",
        "coordinates": [
          -76.76310488150034,
          -51.27809280399402
        ]
      }
    },
    {
      "type": "Feature",
      "properties": {
        "norad_id": 31229,
        "name": "FENGYUN 1C DEB",
        "group": "fengyun-1c-debris",
        "lat": 61.32816240310931,
        "lon": -88.24796416496199,
        "alt_km": 843.372675451099,
        "timestamp": "2025-12-25T19:00:39.632158+00:00",
        "meta_object_name": "FENGYUN 1C DEB",
        "meta_object_id": "1999-025BLK",
        "meta_epoch": "2025-12-24T03:36:47.278944",
        "meta_mean_motion": 14.21887449,
        "meta_eccentricity": 0.0054144,
        "meta_inclination": 98.8659,
        "meta_ra_of_asc_node": 73.5182,
        "meta_arg_of_pericenter": 263.5906,
        "meta_mean_anomaly": 95.9103,
        "meta_ephemeris_type": 0,
        "meta_classification_type": "U",
        "meta_norad_cat_id": 31229,
        "meta_element_set_no": 999,
        "meta_rev_at_epoch": 96246,
        "meta_bstar": 0.001520999,
        "meta_mean_motion_dot": 3.359e-05,
        "meta_mean_motion_ddot": 0,
        "tle_line1": "1 31229U 99025BLK 25358.15054721  .00003359  00000+0  15210-2 0  9990",
        "tle_line2": "2 31229  98.8659  73.5182 0054144 263.5906  95.9103 14.21887449962461"
      },
      "geometry": {
        "type": "Point",
        "coordinates": [
          -88.24796416496199,
          61.32816240310931
        ]
      }
    },
    {
      "type": "Feature",
      "properties": {
        "norad_id": 31231,
        "name": "FENGYUN 1C DEB",
        "group": "fengyun-1c-debris",
        "lat": 31.437842576515855,
        "lon": -14.343654294093666,
        "alt_km": 625.8001495049821,
        "timestamp": "2025-12-25T19:00:39.632168+00:00",
        "meta_object_name": "FENGYUN 1C DEB",
        "meta_object_id": "1999-025BLM",
        "meta_epoch": "2025-12-23T04:31:59.359872",
        "meta_mean_motion": 14.7598115,
        "meta_eccentricity": 0.01447549,
        "meta_inclination": 98.861,
        "meta_ra_of_asc_node": 157.3309,
        "meta_arg_of_pericenter": 73.4101,
        "meta_mean_anomaly": 288.2947,
        "meta_ephemeris_type": 0,
        "meta_classification_type": "U",
        "meta_norad_cat_id": 31231,
        "meta_element_set_no": 999,
        "meta_rev_at_epoch": 63175,
        "meta_bstar": 0.0022406568,
        "meta_mean_motion_dot": 0.00018286,
        "meta_mean_motion_ddot": 0,
        "tle_line1": "1 31231U 99025BLM 25357.18888148  .00018286  00000+0  22407-2 0  9994",
        "tle_line2": "2 31231  98.8610 157.3309 0144754  73.4101 288.2947 14.75981150631756"
      },
      "geometry": {
        "type": "Point",
        "coordinates": [
          -14.343654294093666,
          31.437842576515855
        ]
      }
    },
    {
      "type": "Feature",
      "properties": {
        "norad_id": 31234,
        "name": "FENGYUN 1C DEB",
        "group": "fengyun-1c-debris",
        "lat": 26.415404470525594,
        "lon": 177.85276672363324,
        "alt_km": 822.3260577672172,
        "timestamp": "2025-12-25T19:00:39.632178+00:00",
        "meta_object_name": "FENGYUN 1C DEB",
        "meta_object_id": "1999-025BLQ",
        "meta_epoch": "2025-12-21T17:04:15.155328",
        "meta_mean_motion": 14.08023964,
        "meta_eccentricity": 0.00734361,
        "meta_inclination": 98.7852,
        "meta_ra_of_asc_node": 349.4757,
        "meta_arg_of_pericenter": 201.3949,
        "meta_mean_anomaly": 158.4147,
        "meta_ephemeris_type": 0,
        "meta_classification_type": "U",
        "meta_norad_cat_id": 31234,
        "meta_element_set_no": 999,
        "meta_rev_at_epoch": 72846,
        "meta_bstar": 0.00028337584,
        "meta_mean_motion_dot": 4.51e-06,
        "meta_mean_motion_ddot": 0,
        "tle_line1": "1 31234U 99025BLQ 25355.71128652  .00000451  00000+0  28338-3 0  9996",
        "tle_line2": "2 31234  98.7852 349.4757 0073436 201.3949 158.4147 14.08023964728468"
      },
      "geometry": {
        "type": "Point",
        "coordinates": [
          177.85276672363324,
          26.415404470525594
        ]
      }
    }
  ]
}